name,phone,email,address,country,postalZip
Colby Parsons,(733) 990-6916,molestie.in.tempus@yahoo.ca,520-3947 Quis St.,Sweden,44423
Ebony Preston,1-861-587-2298,ac@icloud.org,635 Sapien. Rd.,United States,821342
Charles Edwards,(881) 713-0172,lorem.ut@yahoo.edu,Ap #585-7512 Nunc Street,Ireland,A5X 6Y4
Georgia Avery,(455) 770-3575,quisque.fringilla@outlook.edu,4693 Fringilla St.,Peru,718663
Imelda Bray,1-313-224-1139,metus@protonmail.ca,770-576 Interdum St.,Ireland,8756
Remedios Black,(913) 325-2913,ac.nulla.in@aol.ca,"P.O. Box 444, 3726 Eu Ave",Canada,76-53
Wendy Norman,1-408-496-8918,molestie.dapibus@hotmail.edu,658-5277 Vitae Ave,India,6764
Candice Jacobson,(316) 844-1784,netus.et.malesuada@protonmail.edu,595-517 Amet Rd.,Norway,60157
Mary Walton,(629) 756-1357,senectus@protonmail.edu,"P.O. Box 444, 9559 Nulla Street",Poland,54115
Berk Pittman,1-729-728-7440,nec.urna@outlook.com,Ap #891-8754 Rhoncus. Ave,Australia,5829
Ariana Phillips,1-487-558-9176,ipsum.ac@google.net,433-6985 Mi Av.,United Kingdom,8874-1165
Raphael Banks,1-555-735-3557,vitae.dolor@google.com,172-5104 Sodales. Rd.,China,57531
Carlos Atkins,1-873-472-4423,non.hendrerit@protonmail.org,"P.O. Box 554, 3549 Auctor, Rd.",Costa Rica,5426 CF
Fitzgerald Freeman,(658) 433-5322,augue.ut@protonmail.edu,"484-854 Sed, St.",Costa Rica,36821
Thomas Mccarty,(103) 438-2756,dignissim.tempor@aol.org,9805 Conubia Av.,Pakistan,10102
Quinlan Rodriquez,(205) 433-8229,nunc.ullamcorper@protonmail.com,9796 Nulla Avenue,Singapore,241681
Octavius Mcdowell,(799) 763-8621,pede@yahoo.edu,483-1900 At Road,Poland,6365
Yeo Barron,(353) 608-8356,dui.quis@hotmail.com,7015 Interdum Avenue,New Zealand,8184
Jeanette Russo,(682) 296-2523,rutrum.eu@aol.net,Ap #881-8949 Pede Avenue,Turkey,72120
Caleb Morales,(901) 974-4886,orci.donec.nibh@hotmail.ca,108-143 Ac Rd.,Nigeria,04268
Whilemina Sheppard,1-624-514-4215,ipsum.nunc.id@aol.couk,"P.O. Box 748, 2408 Luctus, St.",Mexico,40405
Jael Sutton,(889) 967-3351,magna.lorem@protonmail.couk,"P.O. Box 395, 6160 Facilisis St.",Italy,13188
Chava Kirk,(675) 614-4735,massa.suspendisse@yahoo.edu,"P.O. Box 919, 7763 Tellus. St.",United States,3061
Darius Charles,1-266-377-1366,cubilia.curae@yahoo.couk,1687 Et Ave,New Zealand,62457
Lacey Collins,(562) 630-8533,lectus.rutrum@protonmail.ca,"P.O. Box 584, 9870 Aliquam Av.",Ireland,O2N 8P3
Sacha Britt,(318) 534-2525,et@aol.org,"P.O. Box 191, 957 Semper St.",Belgium,82681-173
Camilla Chandler,1-313-138-0208,nonummy.ut@yahoo.net,135-2904 Neque Rd.,Vietnam,61675-482
Alexandra Rice,1-274-786-2307,lectus.ante.dictum@aol.ca,269-5992 Eu Av.,Ireland,484513
John Downs,1-235-855-7387,non.dapibus.rutrum@yahoo.edu,"P.O. Box 499, 1164 Quisque Road",China,355200
Amethyst Peterson,1-481-259-3257,lobortis.class.aptent@google.couk,Ap #705-8119 Mattis. Ave,Philippines,26436
Ferdinand Gill,(630) 748-5456,ante.bibendum@google.com,780-7319 Habitant Rd.,Belgium,73193-42578
Tarik Walton,1-624-281-1348,lobortis.risus@google.couk,"P.O. Box 913, 7886 Molestie Road",South Korea,5836
Zachery Guzman,(427) 808-5287,sed@outlook.org,205-1846 Ornare Rd.,South Korea,5905
Carlos Brady,(590) 606-6785,metus.in@hotmail.ca,4874 Magna Rd.,India,42181
Daria Bradford,1-260-686-0511,rhoncus.proin@icloud.edu,Ap #821-9788 Sed Rd.,Sweden,473581
Rylee Fletcher,(511) 628-7798,dolor.nulla.semper@outlook.ca,Ap #442-914 Blandit Av.,Canada,15476
Sarah Alexander,(246) 422-0577,mauris.rhoncus@icloud.org,"P.O. Box 223, 2187 Magna. Avenue",Colombia,221085
Tana Bass,(644) 211-8268,mauris.sagittis.placerat@hotmail.org,"744-8741 Tempus, Avenue",Norway,89282
Buckminster Larsen,(272) 467-8428,lacus.pede@yahoo.org,8273 Sem Av.,Singapore,0955
Buffy Sheppard,1-449-315-6418,vel.convallis@yahoo.net,"P.O. Box 752, 2126 Iaculis St.",Austria,1831
Liberty Thomas,(583) 842-7181,accumsan.interdum.libero@yahoo.com,Ap #912-6439 Libero. Avenue,South Africa,15635
Quinn Shannon,(316) 556-8665,blandit.viverra@protonmail.org,Ap #917-9586 Nunc Road,Vietnam,8466-5756
Constance Woodard,(454) 662-4821,aliquet.vel@protonmail.couk,5208 Hendrerit Rd.,South Africa,1111
Daphne Massey,(152) 846-3481,urna.nullam@outlook.com,Ap #864-6838 Maecenas Rd.,Sweden,9851-1326
Martina Hendrix,1-758-624-3976,aptent.taciti@yahoo.org,Ap #111-6373 Mus. Ave,Turkey,3245
Emma Weaver,1-804-946-8256,erat.sed@outlook.com,"Ap #164-1080 Auctor, Rd.",Pakistan,41729-62452
Harriet Dudley,(462) 121-7074,commodo@hotmail.edu,"P.O. Box 600, 6249 Phasellus St.",Austria,744283
Plato Whitaker,1-885-801-9629,egestas.urna@hotmail.org,"P.O. Box 867, 499 Natoque Street",France,S8C 9M5
Aiko Mendez,1-518-410-2087,eget@aol.ca,Ap #695-3132 Diam Street,South Africa,2853
Scott Bryan,(592) 628-5412,in.aliquet@hotmail.com,627-3091 Donec Av.,United Kingdom,42108
Plato Cash,(385) 600-2599,purus@aol.com,233-261 Fermentum Rd.,Singapore,2253
Caleb Freeman,(448) 727-6733,in.condimentum@aol.edu,6093 In Rd.,Austria,4114
Portia Hoover,1-432-676-0607,urna.nunc@outlook.net,Ap #837-3509 Velit Road,Pakistan,20170
Kennedy Prince,1-334-403-4772,consectetuer.adipiscing@aol.com,Ap #343-5902 Turpis Rd.,Russian Federation,58041
Paul Spence,(414) 561-5296,enim.gravida.sit@protonmail.couk,Ap #358-8376 Lobortis Avenue,Canada,403574
Benjamin Hines,(854) 229-6242,enim.commodo@outlook.edu,"P.O. Box 124, 5607 Integer St.",Vietnam,38380663
Olga Waller,(105) 258-6698,egestas.hendrerit@aol.ca,477-6515 A Av.,Australia,39157
Aileen George,(892) 187-3168,nec.metus@icloud.net,977 Dictum Ave,Peru,503182
Lisandra Rios,(364) 858-6607,auctor@protonmail.org,Ap #361-7828 Mauris Rd.,Costa Rica,3935
Aristotle Hall,(624) 677-9534,bibendum.donec@hotmail.couk,2162 Nunc Rd.,Canada,5560
Laith Carpenter,(174) 814-7543,tempus.lorem@protonmail.couk,2214 Auctor St.,Australia,45715
Ralph Cummings,1-333-708-1971,at.pretium@outlook.com,Ap #856-2843 Maecenas Street,Norway,247450
Adele Bailey,1-905-851-8908,porttitor@icloud.ca,"P.O. Box 738, 2910 Donec St.",Colombia,35553
India Ballard,1-767-293-4115,nec.diam@google.net,"P.O. Box 372, 5275 Lobortis, St.",South Africa,9316
Miriam Rivers,(318) 326-2121,mi@yahoo.ca,7638 Fames Av.,Singapore,4329
Angela Merritt,(294) 464-6837,turpis.egestas@aol.net,"P.O. Box 839, 7098 Magna Av.",Indonesia,138085
Denton Sexton,1-762-848-8286,metus@icloud.ca,890-8233 Neque Street,Pakistan,7370 DB
Martha Morales,(475) 192-5847,at.pretium@hotmail.org,"P.O. Box 155, 8921 Nullam St.",Pakistan,777495
Emerald Ortiz,1-437-626-8859,magna.phasellus@outlook.ca,"972-7839 Erat, St.",United Kingdom,531535
Tobias Burks,(231) 542-3343,mauris@protonmail.ca,6333 Nec Avenue,Brazil,7558
Nola Horn,(728) 127-8943,purus@icloud.couk,841-2101 Ac Street,Spain,SB0K 7FS
Mason Miller,(836) 605-6467,ante.lectus.convallis@icloud.net,880-7590 In St.,India,311873
Chancellor Dotson,1-737-767-4362,mauris@google.org,"838-5388 Sapien, Avenue",Peru,3399
Melvin Burks,(520) 238-1466,eu.neque@yahoo.org,"P.O. Box 323, 2085 Aliquet. Rd.",Philippines,47834-89159
Brooke Sykes,(448) 854-3410,id.nunc@yahoo.net,Ap #654-8443 Donec Street,Poland,4781
Gareth Waller,1-835-511-4728,commodo.at@hotmail.couk,Ap #832-8854 Morbi Rd.,Ireland,30208
McKenzie Bender,1-470-236-2794,sed@aol.org,5956 Eget Ave,Turkey,3320
Hamish Weeks,1-922-455-5243,hendrerit@yahoo.org,"P.O. Box 769, 8667 Vel Rd.",Mexico,131644
Amal Stokes,1-544-751-1713,non.quam@protonmail.edu,7524 Nisi Road,Nigeria,12997
Galena Whitney,(805) 629-3857,dictum.eleifend@yahoo.edu,Ap #292-8459 Mi Av.,New Zealand,4240-2716
Yael Chase,1-818-188-4709,montes.nascetur@google.ca,"Ap #657-8421 Placerat, Street",Spain,14444
Timothy Williams,1-277-678-6885,vivamus.nibh@google.net,"P.O. Box 410, 6477 Feugiat Road",Costa Rica,693596
Felix Kirkland,1-903-752-6563,ligula.aliquam@google.org,Ap #342-3932 Rhoncus. Rd.,Vietnam,22-156
Quinlan Kidd,(447) 703-3360,nec.urna@icloud.ca,"P.O. Box 309, 5435 Elementum, Avenue",Russian Federation,8681 MQ
Lucas Taylor,1-717-468-6470,et.magna@google.edu,"P.O. Box 849, 4483 Mattis. Rd.",Costa Rica,3343
Seth Nash,(731) 543-9256,odio.aliquam@hotmail.couk,Ap #449-244 Luctus Avenue,South Africa,5583
Victor Rodriquez,(681) 117-7807,faucibus.id@google.ca,"P.O. Box 367, 4202 Lorem Avenue",Costa Rica,29861
Barclay Ashley,(232) 981-4996,adipiscing.elit@aol.org,Ap #200-7806 Rhoncus. Road,United States,30489-66102
Ivor Jimenez,(517) 613-7315,ipsum@aol.couk,"320-9795 Laoreet, Av.",Belgium,481293
Kiona Kelly,1-224-385-6106,tellus.faucibus@google.com,102-1882 Est St.,Nigeria,2605
Teegan Chavez,1-820-289-7123,vel.quam@yahoo.edu,"P.O. Box 227, 4899 Dapibus Street",Spain,41817
Imogene Pace,1-779-151-7363,arcu.nunc@yahoo.ca,"481-6647 Nec, Rd.",Austria,5231
Scarlett Bass,(244) 856-5454,lorem.semper.auctor@hotmail.com,499-2380 Nisi. Road,Colombia,15414-06094
Kevin Stewart,(471) 682-8135,convallis.in@outlook.org,"P.O. Box 561, 3251 Arcu. Avenue",Costa Rica,67713-73557
Hilel Winters,1-874-965-2831,duis.elementum@icloud.edu,147-4949 Quisque Avenue,Philippines,44963
Wade Hodge,(785) 851-3917,justo.sit@protonmail.ca,Ap #130-1291 Nisi Ave,Canada,7731
Aretha Newton,(672) 385-8346,odio.tristique.pharetra@icloud.net,Ap #790-1352 Sed Rd.,Norway,603866
Brock O'connor,(730) 465-8833,velit.pellentesque@aol.com,"P.O. Box 403, 2132 Imperdiet Road",Italy,168813
Allegra Hodges,1-373-417-8023,convallis.in@yahoo.com,Ap #874-725 Augue Road,France,32223
Quamar Bullock,(524) 709-9858,nec.diam.duis@outlook.edu,255 Sem Street,Belgium,2302
